{"fetched_at":"2026-03-30T06:02:59Z","count":15439,"tles":[{"name":"STARLINK-35630","line1":"1 66131U 25237T   26087.91429000  .00032685  00000+0  11097-2 0  9997","line2":"2 66131  53.1573 310.3525 0000385 126.3071 233.7965 15.30232079 25552","category":"Starlink"}]}