{
  "norad_id": 66131,
  "name": "STARLINK-35630",
  "history": [
    {
      "epoch": "2026-03-28T21:56:34.656000",
      "apogee_km": 475.383139348005,
      "perigee_km": 474.855438613753,
      "latitude_deg": -10.726587101815223,
      "longitude_deg": 160.87183999991976,
      "semi_major_axis_km": 6853.256288980879,
      "eccentricity": 3.85e-05,
      "inclination_deg": 53.1573,
      "raan_deg": 310.3525,
      "arg_perigee_deg": 126.3071,
      "mean_anomaly_deg": 233.7965,
      "mean_motion_rev_day": 15.30232079
    }
  ]
}